COSMOS 2419 (714)       
1 28915U 05050A   16200.87150473 -.00000003  00000-0  00000+0 0  9992
2 28915  65.3350  77.0946 0016247 354.3581 331.6072  2.13110853 82221
COSMOS 2425 (716)       
1 29670U 06062A   16201.13510500 -.00000039  00000-0  10000-3 0  9990
2 29670  65.6203 316.0818 0019999 347.9767 237.1505  2.13104955 74436
COSMOS 2426 (717)       
1 29671U 06062B   16201.10114348 -.00000039  00000-0  10000-3 0  9998
2 29671  65.6370 316.1652 0018438 162.4196 257.3295  2.13102930 74444
COSMOS 2424 (715)       
1 29672U 06062C   16200.66085787 -.00000042  00000-0  10000-3 0  9997
2 29672  65.6214 316.1076 0017890 161.6947  96.5248  2.13102353 74426
COSMOS 2433 (720)       
1 32275U 07052A   16200.71044647 -.00000004  00000-0  10000-3 0  9994
2 32275  65.3508  76.8717 0001639 292.8831 158.5033  2.13104686 67948
COSMOS 2432 (719)       
1 32276U 07052B   16201.08629071 -.00000001  00000-0  10000-3 0  9993
2 32276  65.3631  76.9242 0012266 342.8441 350.6398  2.13104247 67943
COSMOS 2434 (721)       
1 32393U 07065A   16200.73165859 -.00000041  00000-0  00000+0 0  9996
2 32393  65.2372 315.4025 0005431 117.2423 242.2152  2.13102859 66641
COSMOS 2436 (723)       
1 32395U 07065C   16200.22350844 -.00000045  00000-0  10000-3 0  9991
2 32395  65.2518 315.4635 0015763 357.7720  63.8739  2.13102912 66572
COSMOS 2443 (725)       
1 33379U 08046B   16200.71825475 -.00000004  00000-0  10000-3 0  9990
2 33379  65.2797  76.2847 0016514 181.9540 180.1385  2.13101266 60815
COSMOS 2456 (730)       
1 36111U 09070A   16201.52410017  .00000081  00000-0  00000+0 0  9996
2 36111  64.1832 194.9575 0006502 295.6632 121.4259  2.13102945 51337
COSMOS 2457 (733)       
1 36112U 09070B   16201.45587787  .00000081  00000-0  00000+0 0  9998
2 36112  64.1648 194.8861 0006851 190.5670 304.2837  2.13101629 51333
COSMOS 2458 (734)       
1 36113U 09070C   16199.55304065  .00000091  00000-0  10000-3 0  9998
2 36113  64.1700 194.9576 0002709 291.6439 230.9898  2.13101972 51299
COSMOS 2459 (731)       
1 36400U 10007A   16200.55869233 -.00000005  00000-0  10000-3 0  9991
2 36400  65.2587  76.0245 0028948 355.2251 204.8317  2.13102358 49661
COSMOS 2461 (735)       
1 36401U 10007B   16200.65294939 -.00000004  00000-0  10000-3 0  9997
2 36401  65.2525  76.0011 0007518  66.2602 116.6876  2.13102484 49664
COSMOS 2460 (732)       
1 36402U 10007C   16199.85048297 -.00000010  00000-0  10000-3 0  9998
2 36402  65.2419  76.0044 0001474  43.7971 285.3276  2.13101852 49641
COSMOS 2465 (737)       
1 37138U 10041B   16200.52382667 -.00000043  00000-0  00000+0 0  9993
2 37138  64.8383 315.5670 0036312 169.3333  74.4735  2.13093900 45732
COSMOS 2464 (736)       
1 37139U 10041C   16200.44600032 -.00000044  00000-0  00000+0 0  9995
2 37139  64.8444 315.5654 0021747  15.9380 352.0731  2.13102638 45748
COSMOS 2471 (701K)      
1 37372U 11009A   16201.40484227  .00000000  00000-0  00000+0 0  9993
2 37372  65.2397  75.9017 0006706 235.0680 339.1977  2.13102737 41952
COSMOS 2474 (742)       
1 37829U 11055A   16199.65471093  .00000091  00000-0  00000-0 0  9992
2 37829  64.5074 195.4466 0010833 254.1892  30.0449  2.13101953 37283
COSMOS 2476 (744)       
1 37867U 11064A   16201.19862257  .00000083  00000-0  00000+0 0  9993
2 37867  64.4873 195.4743 0019804 248.5329 185.9895  2.13102064 36679
COSMOS 2477 (745)       
1 37868U 11064B   16200.93481016  .00000085  00000-0  00000+0 0  9997
2 37868  64.4955 195.5247 0017768 250.0499 161.3679  2.13101908 36623
COSMOS 2475 (743)       
1 37869U 11064C   16199.63303635  .00000092  00000-0  00000-0 0  9991
2 37869  64.5032 195.5571 0023094 273.3845 175.5005  2.13102100 36606
COSMOS 2485 (747)       
1 39155U 13019A   16200.13617248  .00000089  00000-0  00000+0 0  9994
2 39155  64.6569 195.4676 0019991 243.7432 140.8214  2.13102087 25127
COSMOS 2492 (754)       
1 39620U 14012A   16201.42277647  .00000000  00000-0  10000-3 0  9991
2 39620  65.1273  75.9360 0015426 338.4100 346.5154  2.13103535 18092
COSMOS 2500 (755)       
1 40001U 14032A   16200.66942139 -.00000004  00000-0  00000+0 0  9998
2 40001  65.0712  75.9833 0004665 200.3343 130.3373  2.13103019 16297
COSMOS 2501 (702K)      
1 40315U 14075A   16201.44477370 -.00000039  00000-0  00000+0 0  9998
2 40315  64.6081 316.9784 0017358 230.8071 135.7529  2.13101642 12727
COSMOS 2514 (751)       
1 41330U 16008A   16199.70060127 -.00000012  00000-0  00000-0 0  9999
2 41330  64.8696  76.2437 0007728 213.9923 272.5408  2.13103572  3447
COSMOS 2516 (753)       
1 41554U 16032A   16200.63787588 -.00000044  00000-0  00000+0 0  9990
2 41554  64.7907 316.6908 0011405 216.2702 164.0135  2.13101529  1070
